IRIDIUM 7               
1 24793U 97020B   25269.00929631  .00000600  00000+0  19994-3 0  9997
2 24793  86.3967 134.7022 0002275  93.3561 266.7896 14.36008939486362
IRIDIUM 5               
1 24795U 97020D   25268.79540441  .00011501  00000+0  92396-3 0  9991
2 24795  86.3907  37.2808 0108427 136.2940 224.6940 14.95324295500496
IRIDIUM 4               
1 24796U 97020E   25269.13846430  .00000625  00000+0  20473-3 0  9990
2 24796  86.3956 131.4590 0002078  89.8785 270.2651 14.36910393486967
IRIDIUM 914             
1 24836U 97030A   25269.13668584  .00000722  00000+0  21899-3 0  9999
2 24836  86.3955 139.7613 0000818 125.5809 234.5467 14.40954991621666
IRIDIUM 16              
1 24841U 97030F   25269.24826457  .00000686  00000+0  21708-3 0  9990
2 24841  86.4095 162.8663 0004304  89.7286 270.4405 14.38787363481539
IRIDIUM 911             
1 24842U 97030G   25269.16981900  .00001046  00000+0  27750-3 0  9991
2 24842  86.4519 161.5607 0015995 116.3574 243.9274 14.47752032489699
IRIDIUM 17              
1 24870U 97034B   25268.81032466  .00000909  00000+0  29473-3 0  9992
2 24870  86.4027 192.4634 0003661  67.7903 292.3683 14.37914474478047
IRIDIUM 920             
1 24871U 97034C   25269.28873232  .00000852  00000+0  25565-3 0  9994
2 24871  86.4046 171.2889 0013580 104.5629 255.7078 14.41621210481146
